ASTROCAST-0401          
1 55110U 23001DF  26068.71172895  .00009750  00000+0  37868-3 0  9995
2 55110  97.5547 160.5206 0008142 188.4231 171.6872 15.26258462176022
STARLINK-33606          
1 63421U 25065Y   26068.51419075  .00028624  00000+0  10457-2 0  9998
2 63421  43.0010 107.9589 0000682 293.0036  67.0744 15.27580832 52819
